[{"OBJECT_NAME":"JILIN-1 GAOFEN 03D54","OBJECT_ID":"2022-155D","EPOCH":"2026-03-09T23:37:20.443296","MEAN_MOTION":15.68305206,"ECCENTRICITY":0.00027254,"INCLINATION":97.6021,"RA_OF_ASC_NODE":211.7883,"ARG_OF_PERICENTER":319.8773,"MEAN_ANOMALY":40.2286,"EPHEMERIS_TYPE":0,"CLASSIFICATION_TYPE":"U","NORAD_CAT_ID":54254,"ELEMENT_SET_NO":999,"REV_AT_EPOCH":18463,"BSTAR":0.00092591646,"MEAN_MOTION_DOT":0.00104667,"MEAN_MOTION_DDOT":0},{"OBJECT_NAME":"STARLINK-11271 [DTC]","OBJECT_ID":"2024-154N","EPOCH":"2026-03-09T09:54:34.439904","MEAN_MOTION":15.69705694,"ECCENTRICITY":0.00017242,"INCLINATION":53.1586,"RA_OF_ASC_NODE":132.4257,"ARG_OF_PERICENTER":135.2953,"MEAN_ANOMALY":224.8204,"EPHEMERIS_TYPE":0,"CLASSIFICATION_TYPE":"U","NORAD_CAT_ID":60915,"ELEMENT_SET_NO":999,"REV_AT_EPOCH":8846,"BSTAR":-3.2573731e-5,"MEAN_MOTION_DOT":-4.533e-5,"MEAN_MOTION_DDOT":0}]
